STARLINK-5928           
1 55958U 23037AW  23088.08334491 -.00906414  00000+0 -47295-2 0  9994
2 55958  70.0002 149.4272 0003672 273.6164  49.4473 15.82840402  2309
STARLINK-5929           
1 55959U 23037AX  23088.08334491 -.00907722  00000+0 -47345-2 0  9994
2 55959  70.0002 149.4270 0003681 276.0448  47.3708 15.82851644  2308
STARLINK-5938           
1 55960U 23037AY  23088.08334491 -.00907568  00000+0 -47181-2 0  9992
2 55960  70.0002 149.4240 0003701 276.7498  49.1832 15.82920837  2301
STARLINK-5933           
1 55961U 23037AZ  23088.08334491 -.00906211  00000+0 -47170-2 0  9995
2 55961  70.0002 149.4251 0003709 276.9112  47.9298 15.82890687  2308
STARLINK-5906           
1 55962U 23037BA  23088.08334491 -.00906199  00000+0 -47214-2 0  9990
2 55962  70.0002 149.4259 0003704 276.6383  47.4873 15.82870713  2301
STARLINK-5924           
1 55963U 23037BB  23088.08334491 -.00907233  00000+0 -47291-2 0  9996
2 55963  70.0002 149.4267 0003794 279.4393  44.3294 15.82861668  2304
STARLINK-5895           
1 55964U 23037BC  23088.08334491 -.00907690  00000+0 -47453-2 0  9994
2 55964  70.0002 149.4290 0003683 276.2941  45.3078 15.82802568  2307
STARLINK-5894           
1 55965U 23037BD  23088.58334491 -.00906129  00000+0 -49344-2 0  9997
2 55965  70.0000 147.9925 0003595 272.2868  20.7649 15.81932044  2381
FALCON 9 DEB            
1 55966U 23037BE  23087.65686427  .07290897  42778-5  65350-3 0  9997
2 55966  69.9716 149.8236 0019199 147.5626 212.6788 16.38089264  1916
SES-18                  
1 55970U 23038A   23087.82412097 -.00000151  00000+0  00000+0 0  9991
2 55970   1.9187 354.7201 1345864 183.8940 130.1808  1.21569463   312
SES-19                  
1 55971U 23038B   23087.48619424 -.00000152  00000+0  00000+0 0  9998
2 55971   1.7984 354.8769 1260765 183.5414 344.5666  1.20116129   279
FALCON 9 R/B            
1 55972U 23038C   23087.97310760  .00006395  00000+0  18053-2 0  9998
2 55972  26.8980 352.3344 5921033 189.6003 150.3162  4.14084202   550
2023-039A               
1 55973U 23039A   23088.49100253  .00008830  00000+0  42839-3 0  9998
2 55973  97.4172 239.0663 0011131 227.2413 218.9555 15.18670652  1083
2023-039B               
1 55974U 23039B   23088.42390823  .00008886  00000+0  42892-3 0  9996
2 55974  97.4091 238.9940 0010713 232.4570 211.7499 15.18852996  1066
2023-039C               
1 55975U 23039C   23088.35738657  .00008313  00000+0  40031-3 0  9998
2 55975  97.4139 238.9360 0010085 232.3361 211.1694 15.18959706  1041
2023-039D               
1 55976U 23039D   23088.41667773  .00010278  00000+0  48912-3 0  9995
2 55976  97.4158 238.9971 0010567 240.6811 175.3358 15.19303772  1054
COSMOS 2567             
1 55978U 23040A   23088.38249001  .00013701  00000+0  34498-3 0  9993
2 55978  97.6349 342.7533 0066638  50.4735   9.3789 15.37719148   949
SL-4 R/B                
1 55979U 23040B   23088.42226659  .00057388  00000+0  77369-3 0  9996
2 55979  97.6426 342.9166 0112060  54.4034  54.0364 15.50433224   957
2023-041A               
1 55981U 23041A   23086.71958963 -.00000278  00000+0  00000+0 0  9991
2 55981  42.0109 235.3942 0011328 305.8183  54.8387 15.38525648   515
2023-041B               
1 55982U 23041B   23088.11432740 -.00000275  00000+0  00000+0 0  9995
2 55982  42.0743 227.2883 0006530  22.7415 145.7795 15.37970518   721
2023-041C               
1 55983U 23041C   23088.11262553 -.00000277  00000+0  00000+0 0  9991
2 55983  41.9543 227.2984 0010708  65.1373 103.4682 15.38689876   727
ELECTRON R/B            
1 55984U 23041D   23088.40410845  .01102996  48759-3  23622-2 0  9999
2 55984  41.9709 223.6874 0129660  51.1735 310.0480 15.84411328   790
ELECTRON KICK STAGE R/B 
1 55985U 23041E   23087.84852185  .04362984  81032-5  12283-2 0  9996
2 55985  42.0314 226.3971 0107338 298.4425  69.3278 16.13308645   703
ONEWEB A                
1 56046U 23043A   23088.11301825  .00035323  00000+0  91070-3 0  9990
2 56046  87.4246 141.5578 0011336 262.8639  97.1327 15.38974248  1365
ONEWEB B                
1 56047U 23043B   23088.11294627  .00036927  00000+0  95070-3 0  9997
2 56047  87.4259 141.5571 0011264 263.1028  96.8946 15.39014405  1363
ONEWEB C                
1 56048U 23043C   23088.11259821  .00038325  00000+0  98081-3 0  9994
2 56048  87.4230 141.5583 0010703 259.8404 100.1643 15.39199903  1363
ONEWEB D                
1 56049U 23043D   23088.11088219  .00037709  00000+0  93801-3 0  9996
2 56049  87.4236 141.5570 0007021 253.8426 106.2057 15.40103757  1363
ONEWEB E                
1 56050U 23043E   23088.11357238  .00034963  00000+0  91004-3 0  9990
2 56050  87.4262 141.5584 0011677 270.1970  89.7946 15.38678311  1369
ONEWEB F                
1 56051U 23043F   23088.11132946  .00038057  00000+0  95367-3 0  9992
2 56051  87.4241 141.5595 0008186 252.5641 107.4719 15.39868690  1367
ONEWEB G                
1 56052U 23043G   23088.11192448  .00038997  00000+0  98674-3 0  9993
2 56052  87.4238 141.5567 0009532 252.4995 107.5219 15.39557609  1361
ONEWEB H                
1 56053U 23043H   23087.91667824  .00058547  00000+0  15632-2 0  9991
2 56053  87.4267 141.6316 0010363 287.6187  54.3618 15.37831426  1300
ONEWEB J                
1 56054U 23043J   23088.11228460  .00039949  00000+0  10168-2 0  9998
2 56054  87.4248 141.5576 0010208 257.1219 102.8896 15.39367165  1362
ONEWEB K                
1 56055U 23043K   23088.00001157  .00120713  00000+0  30686-2 0  9996
2 56055  87.4267 141.5970 0010874 260.8762 195.1598 15.39104463  1358
ONEWEB L                
1 56056U 23043L   23088.11243027  .00038274  00000+0  97677-3 0  9997
2 56056  87.4262 141.5566 0010434 258.4245 101.5839 15.39288059  1360
ONEWEB M                
1 56057U 23043M   23087.91667824  .00059946  00000+0  15584-2 0  9995
2 56057  87.4245 141.6274 0011538 271.6467  78.1646 15.38636382  1302
ONEWEB N                
1 56058U 23043N   23088.11235707  .00034139  00000+0  87080-3 0  9998
2 56058  87.4237 141.5579 0010322 257.7215 102.2884 15.39317303  1366
ONEWEB P                
1 56059U 23043P   23088.11073589  .00038261  00000+0  94933-3 0  9992
2 56059  87.4249 141.5582 0006711 255.5156 104.5355 15.40181607  1367
ONEWEB Q                
1 56060U 23043Q   23088.11124597  .00040191  00000+0  10054-2 0  9996
2 56060  87.4239 141.5576 0008008 252.3936 107.6444 15.39916917  1364
ONEWEB R                
1 56061U 23043R   23088.11185570  .00038278  00000+0  96755-3 0  9991
2 56061  87.4242 141.5602 0009378 252.4972 107.5259 15.39592733  1360
ONEWEB S                
1 56062U 23043S   23087.91667824  .00046329  00000+0  12344-2 0  9993
2 56062  87.4246 141.6266 0010695 285.2433  57.9097 15.37934924  1304
ONEWEB T                
1 56063U 23043T   23087.91667824  .00054277  00000+0  13417-2 0  9997
2 56063  87.4213 141.6236 0006551 258.9132 106.8113 15.40244456  1306
ONEWEB U                
1 56064U 23043U   23087.91667824  .00058564  00000+0  15511-2 0  9998
2 56064  87.4261 141.6296 0010999 283.0807  61.2910 15.38073616  1309
ONEWEB V                
1 56065U 23043V   23088.11399681  .00032882  00000+0  86242-3 0  9990
2 56065  87.4283 141.5598 0011712 274.8787  85.1130 15.38449300  1369
ONEWEB W                
1 56066U 23043W   23088.11424289  .00035207  00000+0  92688-3 0  9999
2 56066  87.4274 141.5592 0011775 277.5990  82.3927 15.38326691  1369
ONEWEB X                
1 56067U 23043X   23088.11139546  .00039772  00000+0  99746-3 0  9992
2 56067  87.4237 141.5560 0008341 252.6377 107.3966 15.39837066  1367
ONEWEB Y                
1 56068U 23043Y   23088.00001157  .00109187  00000+0  26679-2 0  9999
2 56068  87.4245 141.5972 0006161 263.7948 205.5674 15.40397401  1351
ONEWEB Z                
1 56069U 23043Z   23088.11431035  .00037956  00000+0  10000-2 0  9999
2 56069  87.4256 141.5583 0011783 278.3933  81.5985 15.38295470  1362
ONEWEB AA               
1 56070U 23043AA  23088.11047561  .00036366  00000+0  89891-3 0  9997
2 56070  87.4254 141.5586 0006513 260.5142  99.5377 15.40303692  1368
ONEWEB AB               
1 56071U 23043AB  23088.11416761  .00034167  00000+0  89858-3 0  9990
2 56071  87.4240 141.5573 0011753 276.7453  83.2463 15.38361125  1364
ONEWEB AC               
1 56072U 23043AC  23087.91667824  .00059464  00000+0  15532-2 0  9990
2 56072  87.4236 141.6269 0011579 274.4935  73.9554 15.38492155  1308
ONEWEB AD               
1 56073U 23043AD  23087.91667824  .00068650  00000+0  16814-2 0  9992
2 56073  87.4231 141.6250 0006087 266.6169 101.3231 15.40477385  1303
ONEWEB AE               
1 56074U 23043AE  23088.11029809  .00036717  00000+0  90459-3 0  9998
2 56074  87.4217 141.5548 0006211 262.9939  97.0610 15.40404727  1368
ONEWEB AF               
1 56075U 23043AF  23087.91667824  .00064641  00000+0  16016-2 0  9994
2 56075  87.4222 141.6247 0006706 254.4967 110.0244 15.40136232  1304
ONEWEB AG               
1 56076U 23043AG  23088.00001157  .00121026  00000+0  31309-2 0  9990
2 56076  87.4280 141.6000 0011650 271.8359 178.8037 15.38556586  1350
ONEWEB AH               
1 56077U 23043AH  23088.11157419  .00038086  00000+0  95833-3 0  9992
2 56077  87.4241 141.5605 0008735 252.4329 107.5972 15.39738181  1362
ONEWEB AJ               
1 56078U 23043AJ  23088.00001157  .00106073  00000+0  28324-2 0  9990
2 56078  87.4254 141.5992 0010124 289.3998 152.2406 15.37652244  1353
ONEWEB AK               
1 56079U 23043AK  23087.91667824  .00060899  00000+0  15402-2 0  9997
2 56079  87.4240 141.6281 0009602 253.0591 105.2736 15.39498167  1300
ONEWEB AL               
1 56080U 23043AL  23088.04783310  .00011798  00000+0  30414-3 0  9998
2 56080  87.4238 141.5810 0011235 262.8088  97.1889 15.38991507   447
ONEWEB AM               
1 56081U 23043AM  23088.11168016  .00037214  00000+0  93821-3 0  9999
2 56081  87.4237 141.5556 0008975 252.5016 107.5258 15.39679241  1365
